{
  "norad_id": 68247,
  "name": "STARLINK-37044",
  "history": [
    {
      "epoch": "2026-03-28T20:00:01.999872Z",
      "apogee_km": 328.6022742254372,
      "perigee_km": 327.54054730984444,
      "latitude_deg": -13.817947583890675,
      "longitude_deg": 79.78880982972348,
      "height_km": 331.81700579298405,
      "semi_major_axis_km": 6706.20841076764,
      "eccentricity": 7.916e-05,
      "inclination_deg": 53.1593,
      "raan_deg": 216.6034,
      "arg_perigee_deg": 75.5195,
      "mean_anomaly_deg": 267.3291,
      "mean_motion_rev_day": 15.80837367
    },
    {
      "epoch": "2026-03-29T04:00:01.999584Z",
      "apogee_km": 328.6729240802406,
      "perigee_km": 327.4041156718804,
      "latitude_deg": 52.38026441044774,
      "longitude_deg": 43.51323206926925,
      "height_km": 333.86670039554616,
      "semi_major_axis_km": 6706.17551987606,
      "eccentricity": 9.46e-05,
      "inclination_deg": 53.1597,
      "raan_deg": 214.9306,
      "arg_perigee_deg": 117.4037,
      "mean_anomaly_deg": 323.5911,
      "mean_motion_rev_day": 15.80848997
    }
  ]
}